STARLETTE               
1 07646U 75010A   23339.89428049 -.00000123  00000+0  13935-4 0  9991
2 07646  49.8226 152.8844 0205752 249.6671 108.2007 13.82322971466680
LAGEOS 1                
1 08820U 76039A   23339.46589736 -.00000010  00000+0  00000+0 0  9991
2 08820 109.8210 222.5718 0044659 140.8225   1.4605  6.38664884854082
AJISAI (EGS)            
1 16908U 86061A   23340.20075552 -.00000105  00000+0 -50332-4 0  9997
2 16908  50.0083 108.6011 0011169 349.3656  82.4465 12.44503088365685
COSMOS 1989 (ETALON 1)  
1 19751U 89001C   23340.44318021  .00000030  00000+0  00000+0 0  9997
2 19751  64.4745 103.9051 0023990 215.0702 105.6049  2.13156209271749
COSMOS 2024 (ETALON 2)  
1 20026U 89039C   23339.21686373 -.00000041  00000+0  00000+0 0  9999
2 20026  65.4152 342.2015 0019181 218.0715 241.1334  2.13204478268786
LAGEOS 2                
1 22195U 92070B   23340.49215773 -.00000009  00000+0  00000+0 0  9995
2 22195  52.6397 130.3929 0138338 142.9882 255.6751  6.47294170735826
STELLA                  
1 22824U 93061B   23340.49886360 -.00000029  00000+0  71615-5 0  9999
2 22824  98.9082  18.4744 0007133  47.0282  97.3109 14.27414273573156
LARETS                  
1 27944U 03042F   23340.48406997  .00000128  00000+0  34139-4 0  9998
2 27944  98.2865 114.4903 0013230  45.9271 314.3018 14.63425999 78327
LARES                   
1 38077U 12006A   23340.38289697 -.00000046  00000+0 -45025-4 0  9999
2 38077  69.4928  70.1853 0009886 208.3953 151.6536 12.54931330541266
LARES-2                 
1 53105U 22080A   23338.99364973 -.00000011  00000+0  00000+0 0  9996
2 53105  70.1373 262.6332 0005256 180.7309 179.3319  6.38965141 32558
